[{"OBJECT_NAME":"ONEWEB-0403","OBJECT_ID":"2021-132Q","EPOCH":"2026-01-25T07:38:01.574592","MEAN_MOTION":13.18686732,"ECCENTRICITY":0.00019002,"INCLINATION":87.9199,"RA_OF_ASC_NODE":3.8149,"ARG_OF_PERICENTER":85.2697,"MEAN_ANOMALY":274.8652,"EPHEMERIS_TYPE":0,"CLASSIFICATION_TYPE":"U","NORAD_CAT_ID":50483,"ELEMENT_SET_NO":999,"REV_AT_EPOCH":20276,"BSTAR":7.330853e-5,"MEAN_MOTION_DOT":4.2e-7,"MEAN_MOTION_DDOT":0},{"OBJECT_NAME":"ONEWEB-0404","OBJECT_ID":"2021-132R","EPOCH":"2026-01-25T02:56:21.026976","MEAN_MOTION":13.1141793,"ECCENTRICITY":0.00022567,"INCLINATION":87.882,"RA_OF_ASC_NODE":49.5456,"ARG_OF_PERICENTER":93.644,"MEAN_ANOMALY":266.4946,"EPHEMERIS_TYPE":0,"CLASSIFICATION_TYPE":"U","NORAD_CAT_ID":50484,"ELEMENT_SET_NO":999,"REV_AT_EPOCH":19694,"BSTAR":0.0012901605,"MEAN_MOTION_DOT":4.7e-6,"MEAN_MOTION_DDOT":0},{"OBJECT_NAME":"ONEWEB-0405","OBJECT_ID":"2021-132S","EPOCH":"2026-01-24T22:53:05.410176","MEAN_MOTION":13.18687036,"ECCENTRICITY":0.0001892,"INCLINATION":87.9203,"RA_OF_ASC_NODE":3.871,"ARG_OF_PERICENTER":76.2927,"MEAN_ANOMALY":283.8415,"EPHEMERIS_TYPE":0,"CLASSIFICATION_TYPE":"U","NORAD_CAT_ID":50485,"ELEMENT_SET_NO":999,"REV_AT_EPOCH":20311,"BSTAR":0.00017707,"MEAN_MOTION_DOT":8.3e-7,"MEAN_MOTION_DDOT":0},{"OBJECT_NAME":"ONEWEB-0406","OBJECT_ID":"2021-132T","EPOCH":"2026-01-25T07:45:09.051552","MEAN_MOTION":13.18686577,"ECCENTRICITY":0.000224,"INCLINATION":87.9202,"RA_OF_ASC_NODE":3.8234,"ARG_OF_PERICENTER":93.3677,"MEAN_ANOMALY":266.7712,"EPHEMERIS_TYPE":0,"CLASSIFICATION_TYPE":"U","NORAD_CAT_ID":50486,"ELEMENT_SET_NO":999,"REV_AT_EPOCH":20279,"BSTAR":3.1760608e-5,"MEAN_MOTION_DOT":2.5e-7,"MEAN_MOTION_DDOT":0},{"OBJECT_NAME":"ONEWEB-0407","OBJECT_ID":"2021-132U","EPOCH":"2026-01-25T07:35:38.713920","MEAN_MOTION":13.1868665,"ECCENTRICITY":0.00016477,"INCLINATION":87.92,"RA_OF_ASC_NODE":3.808,"ARG_OF_PERICENTER":82.1878,"MEAN_ANOMALY":277.9441,"EPHEMERIS_TYPE":0,"CLASSIFICATION_TYPE":"U","NORAD_CAT_ID":50487,"ELEMENT_SET_NO":999,"REV_AT_EPOCH":20273,"BSTAR":-7.3361174e-5,"MEAN_MOTION_DOT":-1.6e-7,"MEAN_MOTION_DDOT":0},{"OBJECT_NAME":"ONEWEB-0409","OBJECT_ID":"2021-132V","EPOCH":"2026-01-25T02:53:55.071456","MEAN_MOTION":13.11418193,"ECCENTRICITY":0.00021744,"INCLINATION":87.8834,"RA_OF_ASC_NODE":49.5217,"ARG_OF_PERICENTER":99.2053,"MEAN_ANOMALY":260.9321,"EPHEMERIS_TYPE":0,"CLASSIFICATION_TYPE":"U","NORAD_CAT_ID":50488,"ELEMENT_SET_NO":999,"REV_AT_EPOCH":19683,"BSTAR":0.0010800191,"MEAN_MOTION_DOT":3.96e-6,"MEAN_MOTION_DDOT":0},{"OBJECT_NAME":"ONEWEB-0412","OBJECT_ID":"2021-132W","EPOCH":"2026-01-25T05:29:44.937312","MEAN_MOTION":13.1868581,"ECCENTRICITY":0.00017715,"INCLINATION":87.9201,"RA_OF_ASC_NODE":3.839,"ARG_OF_PERICENTER":73.6718,"MEAN_ANOMALY":286.4609,"EPHEMERIS_TYPE":0,"CLASSIFICATION_TYPE":"U","NORAD_CAT_ID":50489,"ELEMENT_SET_NO":999,"REV_AT_EPOCH":20281,"BSTAR":0.00015819,"MEAN_MOTION_DOT":7.5e-7,"MEAN_MOTION_DDOT":0},{"OBJECT_NAME":"ONEWEB-0413","OBJECT_ID":"2021-132X","EPOCH":"2026-01-25T07:26:07.948608","MEAN_MOTION":13.1868801,"ECCENTRICITY":0.00016027,"INCLINATION":87.9192,"RA_OF_ASC_NODE":3.8313,"ARG_OF_PERICENTER":73.6424,"MEAN_ANOMALY":286.4884,"EPHEMERIS_TYPE":0,"CLASSIFICATION_TYPE":"U","NORAD_CAT_ID":50490,"ELEMENT_SET_NO":999,"REV_AT_EPOCH":20276,"BSTAR":0.00012611522,"MEAN_MOTION_DOT":6.3e-7,"MEAN_MOTION_DDOT":0},{"OBJECT_NAME":"ONEWEB-0414","OBJECT_ID":"2021-132Y","EPOCH":"2026-01-25T05:15:30.352320","MEAN_MOTION":13.18685758,"ECCENTRICITY":0.00018977,"INCLINATION":87.92,"RA_OF_ASC_NODE":3.8171,"ARG_OF_PERICENTER":78.5398,"MEAN_ANOMALY":281.5947,"EPHEMERIS_TYPE":0,"CLASSIFICATION_TYPE":"U","NORAD_CAT_ID":50491,"ELEMENT_SET_NO":999,"REV_AT_EPOCH":20278,"BSTAR":5.6246088e-5,"MEAN_MOTION_DOT":3.5e-7,"MEAN_MOTION_DDOT":0},{"OBJECT_NAME":"ONEWEB-0417","OBJECT_ID":"2021-132Z","EPOCH":"2026-01-25T07:16:37.922880","MEAN_MOTION":13.1868671,"ECCENTRICITY":0.00020115,"INCLINATION":87.9191,"RA_OF_ASC_NODE":3.832,"ARG_OF_PERICENTER":86.6096,"MEAN_ANOMALY":273.5266,"EPHEMERIS_TYPE":0,"CLASSIFICATION_TYPE":"U","NORAD_CAT_ID":50492,"ELEMENT_SET_NO":999,"REV_AT_EPOCH":20277,"BSTAR":0.00017767218,"MEAN_MOTION_DOT":8.3e-7,"MEAN_MOTION_DDOT":0},{"OBJECT_NAME":"ONEWEB-0418","OBJECT_ID":"2021-132AA","EPOCH":"2026-01-25T03:52:10.575264","MEAN_MOTION":13.18686525,"ECCENTRICITY":0.00022507,"INCLINATION":87.9202,"RA_OF_ASC_NODE":3.8463,"ARG_OF_PERICENTER":89.2504,"MEAN_ANOMALY":270.8886,"EPHEMERIS_TYPE":0,"CLASSIFICATION_TYPE":"U","NORAD_CAT_ID":50493,"ELEMENT_SET_NO":999,"REV_AT_EPOCH":20281,"BSTAR":1.3214243e-5,"MEAN_MOTION_DOT":1.8e-7,"MEAN_MOTION_DDOT":0},{"OBJECT_NAME":"ONEWEB-0419","OBJECT_ID":"2021-132AB","EPOCH":"2026-01-25T04:18:30.009600","MEAN_MOTION":13.18686441,"ECCENTRICITY":0.00019109,"INCLINATION":87.9201,"RA_OF_ASC_NODE":3.8427,"ARG_OF_PERICENTER":93.3979,"MEAN_ANOMALY":266.7372,"EPHEMERIS_TYPE":0,"CLASSIFICATION_TYPE":"U","NORAD_CAT_ID":50494,"ELEMENT_SET_NO":999,"REV_AT_EPOCH":20273,"BSTAR":2.1671513e-5,"MEAN_MOTION_DOT":2.1e-7,"MEAN_MOTION_DDOT":0},{"OBJECT_NAME":"ONEWEB-0420","OBJECT_ID":"2021-132AC","EPOCH":"2026-01-25T07:07:08.438016","MEAN_MOTION":13.18687251,"ECCENTRICITY":0.0001658,"INCLINATION":87.9201,"RA_OF_ASC_NODE":3.832,"ARG_OF_PERICENTER":83.3641,"MEAN_ANOMALY":276.768,"EPHEMERIS_TYPE":0,"CLASSIFICATION_TYPE":"U","NORAD_CAT_ID":50495,"ELEMENT_SET_NO":999,"REV_AT_EPOCH":20274,"BSTAR":0.00041626957,"MEAN_MOTION_DOT":1.77e-6,"MEAN_MOTION_DDOT":0},{"OBJECT_NAME":"ONEWEB-0421","OBJECT_ID":"2021-132AD","EPOCH":"2026-01-25T05:08:23.025696","MEAN_MOTION":13.18686645,"ECCENTRICITY":0.00019498,"INCLINATION":87.9196,"RA_OF_ASC_NODE":3.8404,"ARG_OF_PERICENTER":75.947,"MEAN_ANOMALY":284.1879,"EPHEMERIS_TYPE":0,"CLASSIFICATION_TYPE":"U","NORAD_CAT_ID":50496,"ELEMENT_SET_NO":999,"REV_AT_EPOCH":20277,"BSTAR":0.0001399251,"MEAN_MOTION_DOT":6.8e-7,"MEAN_MOTION_DDOT":0},{"OBJECT_NAME":"ONEWEB-0424","OBJECT_ID":"2021-132AE","EPOCH":"2026-01-24T09:58:45.176160","MEAN_MOTION":13.18686543,"ECCENTRICITY":0.00018592,"INCLINATION":87.9197,"RA_OF_ASC_NODE":3.9944,"ARG_OF_PERICENTER":96.9104,"MEAN_ANOMALY":263.2239,"EPHEMERIS_TYPE":0,"CLASSIFICATION_TYPE":"U","NORAD_CAT_ID":50497,"ELEMENT_SET_NO":999,"REV_AT_EPOCH":20269,"BSTAR":0.00018187775,"MEAN_MOTION_DOT":8.5e-7,"MEAN_MOTION_DDOT":0},{"OBJECT_NAME":"ONEWEB-0426","OBJECT_ID":"2021-132AF","EPOCH":"2026-01-24T10:51:00.596736","MEAN_MOTION":13.18685884,"ECCENTRICITY":0.0002431,"INCLINATION":87.9199,"RA_OF_ASC_NODE":3.9791,"ARG_OF_PERICENTER":75.8418,"MEAN_ANOMALY":284.2984,"EPHEMERIS_TYPE":0,"CLASSIFICATION_TYPE":"U","NORAD_CAT_ID":50498,"ELEMENT_SET_NO":999,"REV_AT_EPOCH":20264,"BSTAR":0.00011368961,"MEAN_MOTION_DOT":5.8e-7,"MEAN_MOTION_DDOT":0},{"OBJECT_NAME":"ONEWEB-0427","OBJECT_ID":"2021-132AG","EPOCH":"2026-01-25T04:08:58.727616","MEAN_MOTION":13.18688098,"ECCENTRICITY":0.00020063,"INCLINATION":87.9198,"RA_OF_ASC_NODE":3.8223,"ARG_OF_PERICENTER":86.9398,"MEAN_ANOMALY":273.1964,"EPHEMERIS_TYPE":0,"CLASSIFICATION_TYPE":"U","NORAD_CAT_ID":50499,"ELEMENT_SET_NO":999,"REV_AT_EPOCH":20276,"BSTAR":-2.2492699e-5,"MEAN_MOTION_DOT":4.0e-8,"MEAN_MOTION_DDOT":0},{"OBJECT_NAME":"ONEWEB-0429","OBJECT_ID":"2021-132AH","EPOCH":"2026-01-25T07:28:30.560448","MEAN_MOTION":13.18686573,"ECCENTRICITY":0.00016363,"INCLINATION":87.9201,"RA_OF_ASC_NODE":3.8273,"ARG_OF_PERICENTER":82.576,"MEAN_ANOMALY":277.5558,"EPHEMERIS_TYPE":0,"CLASSIFICATION_TYPE":"U","NORAD_CAT_ID":50500,"ELEMENT_SET_NO":999,"REV_AT_EPOCH":20275,"BSTAR":-0.00011344726,"MEAN_MOTION_DOT":-3.2e-7,"MEAN_MOTION_DDOT":0},{"OBJECT_NAME":"ONEWEB-0430","OBJECT_ID":"2021-132AJ","EPOCH":"2026-01-25T07:11:53.907936","MEAN_MOTION":13.18685681,"ECCENTRICITY":0.00016075,"INCLINATION":87.9203,"RA_OF_ASC_NODE":3.8265,"ARG_OF_PERICENTER":92.1901,"MEAN_ANOMALY":267.9416,"EPHEMERIS_TYPE":0,"CLASSIFICATION_TYPE":"U","NORAD_CAT_ID":50501,"ELEMENT_SET_NO":999,"REV_AT_EPOCH":20279,"BSTAR":-4.941288e-5,"MEAN_MOTION_DOT":-7.0e-8,"MEAN_MOTION_DDOT":0},{"OBJECT_NAME":"ONEWEB-0432","OBJECT_ID":"2021-132AK","EPOCH":"2026-01-24T22:51:54.151776","MEAN_MOTION":13.18680595,"ECCENTRICITY":0.0002498,"INCLINATION":87.9199,"RA_OF_ASC_NODE":3.8643,"ARG_OF_PERICENTER":101.8136,"MEAN_ANOMALY":258.3276,"EPHEMERIS_TYPE":0,"CLASSIFICATION_TYPE":"U","NORAD_CAT_ID":50502,"ELEMENT_SET_NO":999,"REV_AT_EPOCH":20270,"BSTAR":0.00025212,"MEAN_MOTION_DOT":1.12e-6,"MEAN_MOTION_DDOT":0},{"OBJECT_NAME":"ONEWEB-0440","OBJECT_ID":"2021-132AL","EPOCH":"2026-01-25T07:40:23.853792","MEAN_MOTION":13.18686666,"ECCENTRICITY":0.0001668,"INCLINATION":87.92,"RA_OF_ASC_NODE":3.8118,"ARG_OF_PERICENTER":71.5936,"MEAN_ANOMALY":288.5378,"EPHEMERIS_TYPE":0,"CLASSIFICATION_TYPE":"U","NORAD_CAT_ID":50503,"ELEMENT_SET_NO":999,"REV_AT_EPOCH":20274,"BSTAR":8.4609461e-5,"MEAN_MOTION_DOT":4.6e-7,"MEAN_MOTION_DDOT":0},{"OBJECT_NAME":"ONEWEB-0450","OBJECT_ID":"2021-132AM","EPOCH":"2026-01-25T07:31:05.190528","MEAN_MOTION":13.18687224,"ECCENTRICITY":0.00015002,"INCLINATION":87.9192,"RA_OF_ASC_NODE":3.8325,"ARG_OF_PERICENTER":85.6059,"MEAN_ANOMALY":274.5245,"EPHEMERIS_TYPE":0,"CLASSIFICATION_TYPE":"U","NORAD_CAT_ID":50504,"ELEMENT_SET_NO":999,"REV_AT_EPOCH":20277,"BSTAR":0.0001318057,"MEAN_MOTION_DOT":6.5e-7,"MEAN_MOTION_DDOT":0},{"OBJECT_NAME":"ONEWEB-0410","OBJECT_ID":"2022-012A","EPOCH":"2026-01-25T07:19:48.871200","MEAN_MOTION":13.17648073,"ECCENTRICITY":0.00032104,"INCLINATION":87.9096,"RA_OF_ASC_NODE":34.2382,"ARG_OF_PERICENTER":86.6278,"MEAN_ANOMALY":273.5221,"EPHEMERIS_TYPE":0,"CLASSIFICATION_TYPE":"U","NORAD_CAT_ID":51622,"ELEMENT_SET_NO":999,"REV_AT_EPOCH":19488,"BSTAR":-0.00019588668,"MEAN_MOTION_DOT":-6.3e-7,"MEAN_MOTION_DDOT":0},{"OBJECT_NAME":"ONEWEB-0411","OBJECT_ID":"2022-012B","EPOCH":"2026-01-25T03:33:17.058240","MEAN_MOTION":13.10375531,"ECCENTRICITY":0.00016599,"INCLINATION":87.8769,"RA_OF_ASC_NODE":64.774,"ARG_OF_PERICENTER":114.0654,"MEAN_ANOMALY":246.0647,"EPHEMERIS_TYPE":0,"CLASSIFICATION_TYPE":"U","NORAD_CAT_ID":51623,"ELEMENT_SET_NO":999,"REV_AT_EPOCH":19055,"BSTAR":-0.00050764161,"MEAN_MOTION_DOT":-1.65e-6,"MEAN_MOTION_DDOT":0}]
